{"type": "FeatureCollection", "features": [ {"type": "Feature", "properties": {"norad_id": 34572, "name": "COSMOS 2251 DEB", "group": "cosmos-2251-debris", "lat": 58.4865374597834, "lon": -120.96498411841462, "alt_km": 685.638106307737, "timestamp": "2025-12-27T22:26:48.995198+00:00", "meta": {"OBJECT_NAME": "COSMOS 2251 DEB", "OBJECT_ID": "1993-036VJ", "EPOCH": "2025-12-27T07:16:17.853024", "MEAN_MOTION": 14.50296026, "ECCENTRICITY": 0.0060871, "INCLINATION": 74.0108, "RA_OF_ASC_NODE": 88.1064, "ARG_OF_PERICENTER": 159.2836, "MEAN_ANOMALY": 258.6588, "EPHEMERIS_TYPE": 0, "CLASSIFICATION_TYPE": "U", "NORAD_CAT_ID": 34572, "ELEMENT_SET_NO": 999, "REV_AT_EPOCH": 87589, "BSTAR": 0.0025971, "MEAN_MOTION_DOT": 0.00010352, "MEAN_MOTION_DDOT": 0}, "tle": {"line1": "1 34572U 93036VJ  25361.30298441  .00010352  00000+0  25971-2 0  9996", "line2": "2 34572  74.0108  88.1064 0060871 159.2836 258.6588 14.50296026875890"}}, "geometry": {"type": "Point", "coordinates": [-120.96498411841462, 58.4865374597834]}}, {"type": "Feature", "properties": {"norad_id": 34574, "name": "COSMOS 2251 DEB", "group": "cosmos-2251-debris", "lat": 44.72893351968852, "lon": 30.130586539786062, "alt_km": 609.1153166182676, "timestamp": "2025-12-27T22:26:48.995208+00:00", "meta": {"OBJECT_NAME": "COSMOS 2251 DEB", "OBJECT_ID": "1993-036VL", "EPOCH": "2025-12-27T02:55:25.997088", "MEAN_MOTION": 14.7076727, "ECCENTRICITY": 0.00673363, "INCLINATION": 74.0696, "RA_OF_ASC_NODE": 15.2706, "ARG_OF_PERICENTER": 31.766, "MEAN_ANOMALY": 29.8208, "EPHEMERIS_TYPE": 0, "CLASSIFICATION_TYPE": "U", "NORAD_CAT_ID": 34574, "ELEMENT_SET_NO": 999, "REV_AT_EPOCH": 88990, "BSTAR": 0.0012559628, "MEAN_MOTION_DOT": 7.916e-05, "MEAN_MOTION_DDOT": 0}, "tle": {"line1": "1 34574U 93036VL  25361.12182867  .00007916  00000+0  12560-2 0  9994", "line2": "2 34574  74.0696  15.2706 0067336  31.7660  29.8208 14.70767270889900"}}, "geometry": {"type": "Point", "coordinates": [30.130586539786062, 44.72893351968852]}}, {"type": "Feature", "properties": {"norad_id": 34576, "name": "COSMOS 2251 DEB", "group": "cosmos-2251-debris", "lat": -73.41030730561424, "lon": 3.348697406631566, "alt_km": 708.9899006325313, "timestamp": "2025-12-27T22:26:48.995218+00:00", "meta": {"OBJECT_NAME": "COSMOS 2251 DEB", "OBJECT_ID": "1993-036VN", "EPOCH": "2025-12-27T10:03:02.843424", "MEAN_MOTION": 14.55531799, "ECCENTRICITY": 0.000826, "INCLINATION": 74.034, "RA_OF_ASC_NODE": 110.3859, "ARG_OF_PERICENTER": 249.3225, "MEAN_ANOMALY": 190.7639, "EPHEMERIS_TYPE": 0, "CLASSIFICATION_TYPE": "U", "NORAD_CAT_ID": 34576, "ELEMENT_SET_NO": 999, "REV_AT_EPOCH": 88680, "BSTAR": 0.0010049, "MEAN_MOTION_DOT": 4.353e-05, "MEAN_MOTION_DDOT": 0}, "tle": {"line1": "1 34576U 93036VN  25361.41878291  .00004353  00000+0  10049-2 0  9993", "line2": "2 34576  74.0340 110.3859 0008260 249.3225 190.7639 14.55531799886809"}}, "geometry": {"type": "Point", "coordinates": [3.348697406631566, -73.41030730561424]}}, {"type": "Feature", "properties": {"norad_id": 34579, "name": "COSMOS 2251 DEB", "group": "cosmos-2251-debris", "lat": -65.41794589832539, "lon": 156.91215592036235, "alt_km": 730.3322072980855, "timestamp": "2025-12-27T22:26:48.995228+00:00", "meta": {"OBJECT_NAME": "COSMOS 2251 DEB", "OBJECT_ID": "1993-036VR", "EPOCH": "2025-12-27T08:04:56.334432", "MEAN_MOTION": 14.45347707, "ECCENTRICITY": 0.0027464, "INCLINATION": 74.0513, "RA_OF_ASC_NODE": 196.7168, "ARG_OF_PERICENTER": 263.167, "MEAN_ANOMALY": 152.659, "EPHEMERIS_TYPE": 0, "CLASSIFICATION_TYPE": "U", "NORAD_CAT_ID": 34579, "ELEMENT_SET_NO": 999, "REV_AT_EPOCH": 88385, "BSTAR": 0.0004263, "MEAN_MOTION_DOT": 1.478e-05, "MEAN_MOTION_DDOT": 0}, "tle": {"line1": "1 34579U 93036VR  25361.33676313  .00001478  00000+0  42630-3 0  9995", "line2": "2 34579  74.0513 196.7168 0027464 263.1670 152.6590 14.45347707883858"}}, "geometry": {"type": "Point", "coordinates": [156.91215592036235, -65.41794589832539]}}, {"type": "Feature", "properties": {"norad_id": 34582, "name": "COSMOS 2251 DEB", "group": "cosmos-2251-debris", "lat": 56.23957010830224, "lon": 38.73130617605152, "alt_km": 763.2784205070075, "timestamp": "2025-12-27T22:26:48.995238+00:00", "meta": {"OBJECT_NAME": "COSMOS 2251 DEB", "OBJECT_ID": "1993-036VU", "EPOCH": "2025-12-27T01:55:59.866464", "MEAN_MOTION": 14.43394938, "ECCENTRICITY": 0.00485986, "INCLINATION": 74.0188, "RA_OF_ASC_NODE": 245.707, "ARG_OF_PERICENTER": 352.8188, "MEAN_ANOMALY": 7.2266, "EPHEMERIS_TYPE": 0, "CLASSIFICATION_TYPE": "U", "NORAD_CAT_ID": 34582, "ELEMENT_SET_NO": 999, "REV_AT_EPOCH": 88154, "BSTAR": 0.00073022669, "MEAN_MOTION_DOT": 2.474e-05, "MEAN_MOTION_DDOT": 0}, "tle": {"line1": "1 34582U 93036VU  25361.08055401  .00002474  00000+0  73023-3 0  9997", "line2": "2 34582  74.0188 245.7070 0048598 352.8188   7.2266 14.43394938881543"}}, "geometry": {"type": "Point", "coordinates": [38.73130617605152, 56.23957010830224]}}, {"type": "Feature", "properties": {"norad_id": 34588, "name": "COSMOS 2251 DEB", "group": "cosmos-2251-debris", "lat": 69.85810898335282, "lon": 8.825898943630584, "alt_km": 758.1668477813382, "timestamp": "2025-12-27T22:26:48.995247+00:00", "meta": {"OBJECT_NAME": "COSMOS 2251 DEB", "OBJECT_ID": "1993-036WA", "EPOCH": "2025-12-27T02:32:15.955872", "MEAN_MOTION": 14.42062969, "ECCENTRICITY": 0.00193056, "INCLINATION": 74.0422, "RA_OF_ASC_NODE": 241.6352, "ARG_OF_PERICENTER": 292.8584, "MEAN_ANOMALY": 184.7219, "EPHEMERIS_TYPE": 0, "CLASSIFICATION_TYPE": "U", "NORAD_CAT_ID": 34588, "ELEMENT_SET_NO": 999, "REV_AT_EPOCH": 88157, "BSTAR": 0.00045457136, "MEAN_MOTION_DOT": 1.47e-05, "MEAN_MOTION_DDOT": 0}, "tle": {"line1": "1 34588U 93036WA  25361.10574023  .00001470  00000+0  45457-3 0  9997", "line2": "2 34588  74.0422 241.6352 0019305 292.8584 184.7219 14.42062969881572"}}, "geometry": {"type": "Point", "coordinates": [8.825898943630584, 69.85810898335282]}}, {"type": "Feature", "properties": {"norad_id": 34589, "name": "COSMOS 2251 DEB", "group": "cosmos-2251-debris", "lat": 49.572400649175556, "lon": -169.64406472328065, "alt_km": 1107.1058555854142, "timestamp": "2025-12-27T22:26:48.995257+00:00", "meta": {"OBJECT_NAME": "COSMOS 2251 DEB", "OBJECT_ID": "1993-036WB", "EPOCH": "2025-12-26T09:31:57.433728", "MEAN_MOTION": 13.86070784, "ECCENTRICITY": 0.0252543, "INCLINATION": 73.925, "RA_OF_ASC_NODE": 32.7594, "ARG_OF_PERICENTER": 333.3886, "MEAN_ANOMALY": 41.0436, "EPHEMERIS_TYPE": 0, "CLASSIFICATION_TYPE": "U", "NORAD_CAT_ID": 34589, "ELEMENT_SET_NO": 999, "REV_AT_EPOCH": 84901, "BSTAR": 0.00051768, "MEAN_MOTION_DOT": 7.41e-06, "MEAN_MOTION_DDOT": 0}, "tle": {"line1": "1 34589U 93036WB  25360.39719252  .00000741  00000+0  51768-3 0  9995", "line2": "2 34589  73.9250  32.7594 0252543 333.3886  41.0436 13.86070784849016"}}, "geometry": {"type": "Point", "coordinates": [-169.64406472328065, 49.572400649175556]}}, {"type": "Feature", "properties": {"norad_id": 34590, "name": "COSMOS 2251 DEB", "group": "cosmos-2251-debris", "lat": -74.00335880137399, "lon": -159.87266032298606, "alt_km": 758.5836495064559, "timestamp": "2025-12-27T22:26:48.995268+00:00", "meta": {"OBJECT_NAME": "COSMOS 2251 DEB", "OBJECT_ID": "1993-036WC", "EPOCH": "2025-12-27T05:01:22.154880", "MEAN_MOTION": 14.54843725, "ECCENTRICITY": 0.0068121, "INCLINATION": 74.0446, "RA_OF_ASC_NODE": 295.1787, "ARG_OF_PERICENTER": 60.5708, "MEAN_ANOMALY": 7.9549, "EPHEMERIS_TYPE": 0, "CLASSIFICATION_TYPE": "U", "NORAD_CAT_ID": 34590, "ELEMENT_SET_NO": 999, "REV_AT_EPOCH": 89331, "BSTAR": 0.00017224, "MEAN_MOTION_DOT": 7.33e-06, "MEAN_MOTION_DDOT": 0}, "tle": {"line1": "1 34590U 93036WC  25361.20928420  .00000733  00000+0  17224-3 0  9997", "line2": "2 34590  74.0446 295.1787 0068121  60.5708   7.9549 14.54843725893312"}}, "geometry": {"type": "Point", "coordinates": [-159.87266032298606, -74.00335880137399]}}, {"type": "Feature", "properties": {"norad_id": 34609, "name": "COSMOS 2251 DEB", "group": "cosmos-2251-debris", "lat": 34.89657769472204, "lon": 90.70075247139971, "alt_km": 834.1365600366844, "timestamp": "2025-12-27T22:26:48.995278+00:00", "meta": {"OBJECT_NAME": "COSMOS 2251 DEB", "OBJECT_ID": "1993-036WE", "EPOCH": "2025-12-27T05:32:05.775360", "MEAN_MOTION": 14.21844717, "ECCENTRICITY": 0.0145897, "INCLINATION": 73.7329, "RA_OF_ASC_NODE": 80.2369, "ARG_OF_PERICENTER": 297.5269, "MEAN_ANOMALY": 91.9546, "EPHEMERIS_TYPE": 0, "CLASSIFICATION_TYPE": "U", "NORAD_CAT_ID": 34609, "ELEMENT_SET_NO": 999, "REV_AT_EPOCH": 86838, "BSTAR": 0.00083185, "MEAN_MOTION_DOT": 2.014e-05, "MEAN_MOTION_DDOT": 0}, "tle": {"line1": "1 34609U 93036WE  25361.23062240  .00002014  00000+0  83185-3 0  9993", "line2": "2 34609  73.7329  80.2369 0145897 297.5269  91.9546 14.21844717868383"}}, "geometry": {"type": "Point", "coordinates": [90.70075247139971, 34.89657769472204]}}, {"type": "Feature", "properties": {"norad_id": 34610, "name": "COSMOS 2251 DEB", "group": "cosmos-2251-debris", "lat": 58.3166848960329, "lon": 28.001767523185435, "alt_km": 916.2373799941952, "timestamp": "2025-12-27T22:26:48.995287+00:00", "meta": {"OBJECT_NAME": "COSMOS 2251 DEB", "OBJECT_ID": "1993-036WF", "EPOCH": "2025-12-27T01:25:28.924320", "MEAN_MOTION": 14.07155032, "ECCENTRICITY": 0.01808315, "INCLINATION": 74.0173, "RA_OF_ASC_NODE": 237.2055, "ARG_OF_PERICENTER": 4.5515, "MEAN_ANOMALY": 355.7212, "EPHEMERIS_TYPE": 0, "CLASSIFICATION_TYPE": "U", "NORAD_CAT_ID": 34610, "ELEMENT_SET_NO": 999, "REV_AT_EPOCH": 85761, "BSTAR": 0.0021726368, "MEAN_MOTION_DOT": 4.199e-05, "MEAN_MOTION_DDOT": 0}, "tle": {"line1": "1 34610U 93036WF  25361.05936255  .00004199  00000+0  21726-2 0  9999", "line2": "2 34610  74.0173 237.2055 0180831   4.5515 355.7212 14.07155032857613"}}, "geometry": {"type": "Point", "coordinates": [28.001767523185435, 58.3166848960329]}}]}